{
  "type": "FeatureCollection",
  "features": [
    {
      "type": "Feature",
      "properties": {
        "norad_id": 31512,
        "name": "FENGYUN 1C DEB",
        "group": "fengyun-1c-debris",
        "lat": -28.783048744369665,
        "lon": 71.33025893233028,
        "alt_km": 772.6890956588077,
        "timestamp": "2025-12-26T08:37:54.863087+00:00",
        "meta_object_name": "FENGYUN 1C DEB",
        "meta_object_id": "1999-025BXB",
        "meta_epoch": "2025-12-25T12:17:48.253056",
        "meta_mean_motion": 14.43855842,
        "meta_eccentricity": 0.0144773,
        "meta_inclination": 98.8041,
        "meta_ra_of_asc_node": 255.338,
        "meta_arg_of_pericenter": 108.9791,
        "meta_mean_anomaly": 16.818,
        "meta_ephemeris_type": 0,
        "meta_classification_type": "U",
        "meta_norad_cat_id": 31512,
        "meta_element_set_no": 999,
        "meta_rev_at_epoch": 65686,
        "meta_bstar": 0.00039777,
        "meta_mean_motion_dot": 1.488e-05,
        "meta_mean_motion_ddot": 0,
        "tle_line1": "1 31512U 99025BXB 25359.51236404  .00001488  00000+0  39777-3 0  9992",
        "tle_line2": "2 31512  98.8041 255.3380 0144773 108.9791  16.8180 14.43855842656860"
      },
      "geometry": {
        "type": "Point",
        "coordinates": [
          71.33025893233028,
          -28.783048744369665
        ]
      }
    },
    {
      "type": "Feature",
      "properties": {
        "norad_id": 31513,
        "name": "FENGYUN 1C DEB",
        "group": "fengyun-1c-debris",
        "lat": -48.04926137150425,
        "lon": -92.60254287949853,
        "alt_km": 803.9388979870091,
        "timestamp": "2025-12-26T08:37:54.863097+00:00",
        "meta_object_name": "FENGYUN 1C DEB",
        "meta_object_id": "1999-025BXC",
        "meta_epoch": "2025-12-24T05:17:10.594464",
        "meta_mean_motion": 14.32683655,
        "meta_eccentricity": 0.00263257,
        "meta_inclination": 98.8637,
        "meta_ra_of_asc_node": 95.208,
        "meta_arg_of_pericenter": 94.8916,
        "meta_mean_anomaly": 265.5274,
        "meta_ephemeris_type": 0,
        "meta_classification_type": "U",
        "meta_norad_cat_id": 31513,
        "meta_element_set_no": 999,
        "meta_rev_at_epoch": 73033,
        "meta_bstar": 0.0019178492,
        "meta_mean_motion_dot": 5.194e-05,
        "meta_mean_motion_ddot": 0,
        "tle_line1": "1 31513U 99025BXC 25358.22026151  .00005194  00000+0  19178-2 0  9996",
        "tle_line2": "2 31513  98.8637  95.2080 0026325  94.8916 265.5274 14.32683655730335"
      },
      "geometry": {
        "type": "Point",
        "coordinates": [
          -92.60254287949853,
          -48.04926137150425
        ]
      }
    },
    {
      "type": "Feature",
      "properties": {
        "norad_id": 31514,
        "name": "FENGYUN 1C DEB",
        "group": "fengyun-1c-debris",
        "lat": -63.38442503121846,
        "lon": -79.29481216002371,
        "alt_km": 859.0351401251755,
        "timestamp": "2025-12-26T08:37:54.863107+00:00",
        "meta_object_name": "FENGYUN 1C DEB",
        "meta_object_id": "1999-025BXD",
        "meta_epoch": "2025-12-24T16:22:57.611136",
        "meta_mean_motion": 14.21063174,
        "meta_eccentricity": 0.00540571,
        "meta_inclination": 99.247,
        "meta_ra_of_asc_node": 259.9789,
        "meta_arg_of_pericenter": 80.8841,
        "meta_mean_anomaly": 279.8445,
        "meta_ephemeris_type": 0,
        "meta_classification_type": "U",
        "meta_norad_cat_id": 31514,
        "meta_element_set_no": 999,
        "meta_rev_at_epoch": 69494,
        "meta_bstar": 0.0016750567,
        "meta_mean_motion_dot": 3.643e-05,
        "meta_mean_motion_ddot": 0,
        "tle_line1": "1 31514U 99025BXD 25358.68261124  .00003643  00000+0  16751-2 0  9999",
        "tle_line2": "2 31514  99.2470 259.9789 0054057  80.8841 279.8445 14.21063174694946"
      },
      "geometry": {
        "type": "Point",
        "coordinates": [
          -79.29481216002371,
          -63.38442503121846
        ]
      }
    },
    {
      "type": "Feature",
      "properties": {
        "norad_id": 31516,
        "name": "FENGYUN 1C DEB",
        "group": "fengyun-1c-debris",
        "lat": 60.80398674488781,
        "lon": -47.483073147575105,
        "alt_km": 783.1053822395716,
        "timestamp": "2025-12-26T08:37:54.863117+00:00",
        "meta_object_name": "FENGYUN 1C DEB",
        "meta_object_id": "1999-025BXF",
        "meta_epoch": "2025-12-21T19:17:21.706080",
        "meta_mean_motion": 14.25431732,
        "meta_eccentricity": 0.01487567,
        "meta_inclination": 98.8326,
        "meta_ra_of_asc_node": 111.7717,
        "meta_arg_of_pericenter": 212.2499,
        "meta_mean_anomaly": 301.3819,
        "meta_ephemeris_type": 0,
        "meta_classification_type": "U",
        "meta_norad_cat_id": 31516,
        "meta_element_set_no": 999,
        "meta_rev_at_epoch": 96621,
        "meta_bstar": 0.00043771652,
        "meta_mean_motion_dot": 1.113e-05,
        "meta_mean_motion_ddot": 0,
        "tle_line1": "1 31516U 99025BXF 25355.80372345  .00001113  00000+0  43772-3 0  9994",
        "tle_line2": "2 31516  98.8326 111.7717 0148756 212.2499 301.3819 14.25431732966210"
      },
      "geometry": {
        "type": "Point",
        "coordinates": [
          -47.483073147575105,
          60.80398674488781
        ]
      }
    },
    {
      "type": "Feature",
      "properties": {
        "norad_id": 31519,
        "name": "FENGYUN 1C DEB",
        "group": "fengyun-1c-debris",
        "lat": 39.821263354085644,
        "lon": -176.21080797418975,
        "alt_km": 793.4860909187546,
        "timestamp": "2025-12-26T08:37:54.863127+00:00",
        "meta_object_name": "FENGYUN 1C DEB",
        "meta_object_id": "1999-025BXJ",
        "meta_epoch": "2025-12-23T17:33:15.370560",
        "meta_mean_motion": 14.23419226,
        "meta_eccentricity": 0.0052121,
        "meta_inclination": 98.5739,
        "meta_ra_of_asc_node": 354.002,
        "meta_arg_of_pericenter": 210.1649,
        "meta_mean_anomaly": 149.6526,
        "meta_ephemeris_type": 0,
        "meta_classification_type": "U",
        "meta_norad_cat_id": 31519,
        "meta_element_set_no": 999,
        "meta_rev_at_epoch": 64921,
        "meta_bstar": 0.00036766676,
        "meta_mean_motion_dot": 8.03e-06,
        "meta_mean_motion_ddot": 0,
        "tle_line1": "1 31519U 99025BXJ 25357.73142790  .00000803  00000+0  36767-3 0  9991",
        "tle_line2": "2 31519  98.5739 354.0020 0052121 210.1649 149.6526 14.23419226649219"
      },
      "geometry": {
        "type": "Point",
        "coordinates": [
          -176.21080797418975,
          39.821263354085644
        ]
      }
    },
    {
      "type": "Feature",
      "properties": {
        "norad_id": 31522,
        "name": "FENGYUN 1C DEB",
        "group": "fengyun-1c-debris",
        "lat": -14.457219754915753,
        "lon": 20.264281613610795,
        "alt_km": 916.1026533208669,
        "timestamp": "2025-12-26T08:37:54.863137+00:00",
        "meta_object_name": "FENGYUN 1C DEB",
        "meta_object_id": "1999-025BXM",
        "meta_epoch": "2025-12-25T00:12:20.053152",
        "meta_mean_motion": 14.04015626,
        "meta_eccentricity": 0.00436185,
        "meta_inclination": 98.7066,
        "meta_ra_of_asc_node": 16.7056,
        "meta_arg_of_pericenter": 166.0595,
        "meta_mean_anomaly": 194.1787,
        "meta_ephemeris_type": 0,
        "meta_classification_type": "U",
        "meta_norad_cat_id": 31522,
        "meta_element_set_no": 999,
        "meta_rev_at_epoch": 95168,
        "meta_bstar": 0.00040105376,
        "meta_mean_motion_dot": 5.98e-06,
        "meta_mean_motion_ddot": 0,
        "tle_line1": "1 31522U 99025BXM 25359.00856543  .00000598  00000+0  40105-3 0  9997",
        "tle_line2": "2 31522  98.7066  16.7056 0043618 166.0595 194.1787 14.04015626951685"
      },
      "geometry": {
        "type": "Point",
        "coordinates": [
          20.264281613610795,
          -14.457219754915753
        ]
      }
    },
    {
      "type": "Feature",
      "properties": {
        "norad_id": 31523,
        "name": "FENGYUN 1C DEB",
        "group": "fengyun-1c-debris",
        "lat": -46.97787891679344,
        "lon": 57.13092926492434,
        "alt_km": 866.8142475755967,
        "timestamp": "2025-12-26T08:37:54.863148+00:00",
        "meta_object_name": "FENGYUN 1C DEB",
        "meta_object_id": "1999-025BXN",
        "meta_epoch": "2025-12-18T09:00:27.931392",
        "meta_mean_motion": 14.13860711,
        "meta_eccentricity": 0.00394646,
        "meta_inclination": 98.7566,
        "meta_ra_of_asc_node": 39.8049,
        "meta_arg_of_pericenter": 94.418,
        "meta_mean_anomaly": 281.6008,
        "meta_ephemeris_type": 0,
        "meta_classification_type": "U",
        "meta_norad_cat_id": 31523,
        "meta_element_set_no": 999,
        "meta_rev_at_epoch": 96087,
        "meta_bstar": 2.5829225e-05,
        "meta_mean_motion_dot": 6e-08,
        "meta_mean_motion_ddot": 0,
        "tle_line1": "1 31523U 99025BXN 25352.37532328  .00000006  00000+0  25829-4 0  9994",
        "tle_line2": "2 31523  98.7566  39.8049 0039464  94.4180 281.6008 14.13860711960879"
      },
      "geometry": {
        "type": "Point",
        "coordinates": [
          57.13092926492434,
          -46.97787891679344
        ]
      }
    }
  ]
}